{"type":"FeatureCollection","metadata":{"plot_id":"DEMO-PLOT-001","analysis_period":["2023-07-02","2026-07-19"],"image_count":266,"source_list":["Sentinel-2","Sentinel-1"],"algorithm_versions":["HIST-RICE-1.0.0"],"processing_date":"2026-07-24T16:12:15.181542+00:00","provenance":"DERIVED","confidence":"MODERATE","limitations":["Historical imagery analysis is an analytical demonstration. It does not independently verify AWD compliance.","Overhead imagery cannot directly measure water depth below the soil surface.","Crop-stage, planting-window, and harvest-window results are estimates unless confirmed by field records.","Fertilizer application, straw management, yield, and greenhouse-gas emissions cannot be determined reliably from imagery alone.","Carbon results shown in the demonstration are not verified carbon credits.","No actual cultivation or field IoT installation has been completed for the demonstration plot."],"synthetic_boundary_warning":"DEMO-PLOT-001 is a synthetic demonstration boundary. It is not a cadastral, surveyed, legal, ownership, or officially verified plot boundary.","demo_disclaimer":"Historical baseline analytical demonstration; no verified AWD or carbon-credit claim."},"features":[{"type":"Feature","id":"zone-temporal-demo-plot-001-hist-rice-1.0.0-1","geometry":{"type":"Polygon","coordinates":[[[100.274733,14.469004955303385],[100.27584606312321,14.469004955303385],[100.27584606312321,14.469727997345542],[100.274733,14.469727997345542],[100.274733,14.469004955303385]]]},"properties":{"zone_id":"zone-temporal-demo-plot-001-hist-rice-1.0.0-1","plot_id":"DEMO-PLOT-001","zone_type":"RECURRING_WETNESS_CANDIDATE","number_of_occurrences":17,"number_of_usable_images":91,"years_detected":[2023,2024,2025,2026],"season_ids":["temporal-demo-plot-001-hist-rice-1.0.0-cycle-2024-1","temporal-demo-plot-001-hist-rice-1.0.0-cycle-2024-2","temporal-demo-plot-001-hist-rice-1.0.0-cycle-2025-3","temporal-demo-plot-001-hist-rice-1.0.0-cycle-2026-4"],"confidence":"HIGH","supporting_images":["hist-s2-2023-10-13","hist-s2-2023-10-18","hist-s2-2023-10-23","hist-s2-2023-10-28","hist-s2-2024-09-27","hist-s2-2024-10-07","hist-s2-2024-10-12","hist-s2-2024-10-17","hist-s2-2024-10-22","hist-s2-2024-11-16","hist-s2-2025-09-17","hist-s2-2025-11-16","hist-s2-2025-12-01","hist-s2-2025-12-03","hist-s2-2025-12-16","hist-s2-2026-01-05","hist-s2-2026-01-10"],"recommended_field_check":"Install a temporary field logger and repeat geotagged photos before final sensor placement.","limitations":["Zone is a 10 m imagery candidate summarized to a quadrant.","Location has not been field surveyed or elevation-corrected."],"provenance":"DERIVED"}},{"type":"Feature","id":"zone-temporal-demo-plot-001-hist-rice-1.0.0-2","geometry":{"type":"Polygon","coordinates":[[[100.27361993687678,14.469727997345542],[100.274733,14.469727997345542],[100.274733,14.470451039387699],[100.27361993687678,14.470451039387699],[100.27361993687678,14.469727997345542]]]},"properties":{"zone_id":"zone-temporal-demo-plot-001-hist-rice-1.0.0-2","plot_id":"DEMO-PLOT-001","zone_type":"RECURRING_LOW_GROWTH_CANDIDATE","number_of_occurrences":59,"number_of_usable_images":91,"years_detected":[2023,2024,2025,2026],"season_ids":["temporal-demo-plot-001-hist-rice-1.0.0-cycle-2024-1","temporal-demo-plot-001-hist-rice-1.0.0-cycle-2024-2","temporal-demo-plot-001-hist-rice-1.0.0-cycle-2025-3","temporal-demo-plot-001-hist-rice-1.0.0-cycle-2026-4"],"confidence":"HIGH","supporting_images":["hist-s2-2023-09-13","hist-s2-2023-09-18","hist-s2-2023-10-13","hist-s2-2023-10-18","hist-s2-2023-10-23","hist-s2-2023-10-28","hist-s2-2023-11-17","hist-s2-2023-11-27","hist-s2-2023-12-12","hist-s2-2024-01-11","hist-s2-2024-01-16","hist-s2-2024-01-21","hist-s2-2024-04-15","hist-s2-2024-04-20","hist-s2-2024-04-30","hist-s2-2024-05-10","hist-s2-2024-05-15","hist-s2-2024-06-09","hist-s2-2024-07-04","hist-s2-2024-08-18","hist-s2-2024-08-28","hist-s2-2024-09-12","hist-s2-2024-09-27","hist-s2-2024-10-07"],"recommended_field_check":"Install a temporary field logger and repeat geotagged photos before final sensor placement.","limitations":["Zone is a 10 m imagery candidate summarized to a quadrant.","Location has not been field surveyed or elevation-corrected."],"provenance":"DERIVED"}}]}