{"type":"FeatureCollection","metadata":{"plot_id":"DEMO-PLOT-001","analysis_period":["2023-07-02","2026-07-19"],"image_count":266,"source_list":["Sentinel-2","Sentinel-1"],"algorithm_versions":["HIST-RICE-1.0.0"],"processing_date":"2026-07-24T16:12:15.181542+00:00","provenance":"DERIVED","confidence":"MODERATE","limitations":["Historical imagery analysis is an analytical demonstration. It does not independently verify AWD compliance.","Overhead imagery cannot directly measure water depth below the soil surface.","Crop-stage, planting-window, and harvest-window results are estimates unless confirmed by field records.","Fertilizer application, straw management, yield, and greenhouse-gas emissions cannot be determined reliably from imagery alone.","Carbon results shown in the demonstration are not verified carbon credits.","No actual cultivation or field IoT installation has been completed for the demonstration plot."],"synthetic_boundary_warning":"DEMO-PLOT-001 is a synthetic demonstration boundary. It is not a cadastral, surveyed, legal, ownership, or officially verified plot boundary.","demo_disclaimer":"Historical baseline analytical demonstration; no verified AWD or carbon-credit claim."},"features":[{"type":"Feature","id":"sensor-proposal-temporal-demo-plot-001-hist-rice-1.0.0-1","geometry":{"type":"Point","coordinates":[100.274733,14.469727997345542]},"properties":{"proposal_id":"sensor-proposal-temporal-demo-plot-001-hist-rice-1.0.0-1","plot_id":"DEMO-PLOT-001","sensor_type":"PRIMARY_WATER_LEVEL_SENSOR","latitude":14.469727997345542,"longitude":100.274733,"status":"PROPOSED","field_verification_status":"NOT_FIELD_VERIFIED","rationale":"Representative central position for the primary AWD water-level record.","confidence":"LOW","supporting_zone_ids":[],"assumptions":["Synthetic demonstration boundary","Access, inlet, outlet, pump, and elevation have not been field surveyed"],"provenance":"DERIVED"}},{"type":"Feature","id":"sensor-proposal-temporal-demo-plot-001-hist-rice-1.0.0-2","geometry":{"type":"Point","coordinates":[100.27417646843838,14.469366476324463]},"properties":{"proposal_id":"sensor-proposal-temporal-demo-plot-001-hist-rice-1.0.0-2","plot_id":"DEMO-PLOT-001","sensor_type":"SECONDARY_WATER_LEVEL_SENSOR","latitude":14.469366476324463,"longitude":100.27417646843838,"status":"PROPOSED","field_verification_status":"NOT_FIELD_VERIFIED","rationale":"Proposed near recurring wetness zone (17 candidate occurrences).","confidence":"MODERATE","supporting_zone_ids":["zone-temporal-demo-plot-001-hist-rice-1.0.0-1"],"assumptions":["Synthetic demonstration boundary","Access, inlet, outlet, pump, and elevation have not been field surveyed"],"provenance":"DERIVED"}},{"type":"Feature","id":"sensor-proposal-temporal-demo-plot-001-hist-rice-1.0.0-3","geometry":{"type":"Point","coordinates":[100.27557892797364,14.470277509297581]},"properties":{"proposal_id":"sensor-proposal-temporal-demo-plot-001-hist-rice-1.0.0-3","plot_id":"DEMO-PLOT-001","sensor_type":"RAINFALL_GAUGE","latitude":14.470277509297581,"longitude":100.27557892797364,"status":"PROPOSED","field_verification_status":"NOT_FIELD_VERIFIED","rationale":"Proposed near the field edge to reduce crop-canopy obstruction.","confidence":"LOW","supporting_zone_ids":[],"assumptions":["Synthetic demonstration boundary","Access, inlet, outlet, pump, and elevation have not been field surveyed"],"provenance":"DERIVED"}},{"type":"Feature","id":"sensor-proposal-temporal-demo-plot-001-hist-rice-1.0.0-4","geometry":{"type":"Point","coordinates":[100.27528953156161,14.469366476324463]},"properties":{"proposal_id":"sensor-proposal-temporal-demo-plot-001-hist-rice-1.0.0-4","plot_id":"DEMO-PLOT-001","sensor_type":"SOIL_MOISTURE_SENSOR","latitude":14.469366476324463,"longitude":100.27528953156161,"status":"PROPOSED","field_verification_status":"NOT_FIELD_VERIFIED","rationale":"Proposed to field-check the recurring low-growth zone (59 candidate occurrences).","confidence":"MODERATE","supporting_zone_ids":["zone-temporal-demo-plot-001-hist-rice-1.0.0-2"],"assumptions":["Synthetic demonstration boundary","Access, inlet, outlet, pump, and elevation have not been field surveyed"],"provenance":"DERIVED"}},{"type":"Feature","id":"sensor-proposal-temporal-demo-plot-001-hist-rice-1.0.0-5","geometry":{"type":"Point","coordinates":[100.27370898192665,14.469727997345542]},"properties":{"proposal_id":"sensor-proposal-temporal-demo-plot-001-hist-rice-1.0.0-5","plot_id":"DEMO-PLOT-001","sensor_type":"INLET_FLOW_METER","latitude":14.469727997345542,"longitude":100.27370898192665,"status":"PROPOSED","field_verification_status":"NOT_FIELD_VERIFIED","rationale":"Assumed inlet-side position; hydraulic layout requires field verification.","confidence":"LOW","supporting_zone_ids":[],"assumptions":["Synthetic demonstration boundary","Access, inlet, outlet, pump, and elevation have not been field surveyed"],"provenance":"DERIVED"}},{"type":"Feature","id":"sensor-proposal-temporal-demo-plot-001-hist-rice-1.0.0-6","geometry":{"type":"Point","coordinates":[100.27575701807335,14.469727997345542]},"properties":{"proposal_id":"sensor-proposal-temporal-demo-plot-001-hist-rice-1.0.0-6","plot_id":"DEMO-PLOT-001","sensor_type":"DRAINAGE_OBSERVATION_POINT","latitude":14.469727997345542,"longitude":100.27575701807335,"status":"PROPOSED","field_verification_status":"NOT_FIELD_VERIFIED","rationale":"Assumed outlet-side position for drainage observation; not surveyed.","confidence":"LOW","supporting_zone_ids":[],"assumptions":["Synthetic demonstration boundary","Access, inlet, outlet, pump, and elevation have not been field surveyed"],"provenance":"DERIVED"}},{"type":"Feature","id":"sensor-proposal-temporal-demo-plot-001-hist-rice-1.0.0-7","geometry":{"type":"Point","coordinates":[100.2737980269765,14.470335352660953]},"properties":{"proposal_id":"sensor-proposal-temporal-demo-plot-001-hist-rice-1.0.0-7","plot_id":"DEMO-PLOT-001","sensor_type":"PUMP_ENERGY_METER","latitude":14.470335352660953,"longitude":100.2737980269765,"status":"PROPOSED","field_verification_status":"NOT_FIELD_VERIFIED","rationale":"Proposed near an assumed pump connection; actual pump location is unknown.","confidence":"LOW","supporting_zone_ids":[],"assumptions":["Synthetic demonstration boundary","Access, inlet, outlet, pump, and elevation have not been field surveyed"],"provenance":"DERIVED"}},{"type":"Feature","id":"sensor-proposal-temporal-demo-plot-001-hist-rice-1.0.0-8","geometry":{"type":"Point","coordinates":[100.274733,14.46912064203013]},"properties":{"proposal_id":"sensor-proposal-temporal-demo-plot-001-hist-rice-1.0.0-8","plot_id":"DEMO-PLOT-001","sensor_type":"FIELD_PHOTO_POINT","latitude":14.46912064203013,"longitude":100.274733,"status":"PROPOSED","field_verification_status":"NOT_FIELD_VERIFIED","rationale":"Proposed repeat-photo point looking across the longest representative field view.","confidence":"LOW","supporting_zone_ids":[],"assumptions":["Synthetic demonstration boundary","Access, inlet, outlet, pump, and elevation have not been field surveyed"],"provenance":"DERIVED"}}]}